STARLINK-35872          
1 66580U 25268Z   26187.96964263  .00022404  00000+0  82109-3 0  9991
2 66580  43.0021  33.2935 0000332 301.3400  58.7419 15.27584723 36200
STARLINK-35744          
1 66581U 25268AA  26187.96579161  .00023831  00000+0  87169-3 0  9997
2 66581  43.0027  33.2660 0002063 250.6482 109.4147 15.27618071 36207
STARLINK-35746          
1 66582U 25268AB  26187.95936675  .00037420  00000+0  13605-2 0  9996
2 66582  43.0061  33.2186 0002969 285.9502  74.1023 15.27625867 36200
STARLINK-35941          
1 66583U 25268AC  26187.95551881  .00018926  00000+0  69531-3 0  9999
2 66583  43.0043  33.1855 0001677 254.7363 105.3303 15.27589034 36200
STARLINK-35939          
1 66584U 25268AD  26187.95165157  .00030462  00000+0  11105-2 0  9999
2 66584  43.0046  33.1559 0004126 264.5992  95.4389 15.27615667 36209
STARLINK-35963          
1 66585U 25268AE  26186.96073919  .00028616  00000+0  10469-2 0  9994
2 66585  43.0012  39.4890 0001957 267.7233  92.3394 15.27532311 36040
STARLINK-36076          
1 66588U 25270A   26188.11486777  .00037138  00000+0  13502-2 0  9999
2 66588  42.9998 101.4580 0001260 310.9719  49.1024 15.27630449 35979
STARLINK-35447          
1 66589U 25270B   26188.13542981  .00021993  00000+0  80567-3 0  9990
2 66589  43.0013 101.6118 0001242 248.5798 111.4921 15.27607520 36088
STARLINK-35429          
1 66590U 25270C   26188.03548573  .00022566  00000+0  82702-3 0  9994
2 66590  43.0015 102.5798 0002092 248.7322 111.3307 15.27579777 36062
STARLINK-36058          
1 66591U 25270D   26188.14056478  .00030914  00000+0  11268-2 0  9999
2 66591  43.0005 101.6508 0001996 261.5562  98.5063 15.27620897 35976
STARLINK-36066          
1 66592U 25270E   26188.08803685  .00028582  00000+0  10432-2 0  9993
2 66592  43.0042 102.1157 0001608 250.8365 109.2313 15.27609224 35863
STARLINK-36031          
1 66593U 25270F   26188.12130332 -.00013910  00000+0 -49687-3 0  9997
2 66593  42.9985 101.5048 0001098 359.4939   0.5911 15.27583384 35973
STARLINK-36032          
1 66594U 25270G   26188.15084881  .00027688  00000+0  10109-2 0  9999
2 66594  43.0028 101.7228 0001569 266.8669  93.2003 15.27614192 35782
STARLINK-35711          
1 66595U 25270H   26188.12515439  .00015366  00000+0  56668-3 0  9996
2 66595  43.0000 101.5278 0000940 293.7715  66.3038 15.27584222 36082
STARLINK-35811          
1 66596U 25270J   26188.16113669  .00020106  00000+0  73788-3 0  9990
2 66596  43.0017 101.8051 0001310 259.7336 100.3368 15.27592598 36086
STARLINK-35820          
1 66597U 25270K   26188.14313806  .00027875  00000+0  10176-2 0  9995
2 66597  43.0063 101.6680 0002355 260.3349  99.7237 15.27614102 36088
STARLINK-35981          
1 66598U 25270L   26188.10973762  .00023499  00000+0  86032-3 0  9998
2 66598  42.9978 101.4112 0000806 270.6977  89.3782 15.27596207 35826
STARLINK-35930          
1 66599U 25270M   26188.13285897  .00019997  00000+0  73367-3 0  9992
2 66599  43.0004 101.5867 0001441 265.3025  94.7662 15.27604175 35975
STARLINK-35980          
1 66600U 25270N   26188.15856294  .00042456  00000+0  15414-2 0  9996
2 66600  43.0026 101.7812 0001227 258.7304 101.3410 15.27624713 35877
STARLINK-35978          
1 66601U 25270P   26188.13155968  .00018783  00000+0  69012-3 0  9995
2 66601  42.9993 101.5803 0001358 256.6234 103.4466 15.27590584 35817
STARLINK-36050          
1 66602U 25270Q   26188.15727485  .00033246  00000+0  12108-2 0  9991
2 66602  43.0022 101.7760 0001232 292.6084  67.4637 15.27619051 35877
STARLINK-36048          
1 66603U 25270R   26188.11744344  .00029180  00000+0  10648-2 0  9990
2 66603  42.9987 101.4686 0001463 289.8658  70.2036 15.27608248 35872
STARLINK-35977          
1 66604U 25270S   26188.17125927  .00036678  00000+0  13332-2 0  9990
2 66604  42.9998 101.0114 0000867 344.2344  15.8481 15.27643766 35987
STARLINK-36052          
1 66605U 25270T   26188.14698753  .00027293  00000+0  99678-3 0  9991
2 66605  43.0061 101.6836 0003343 243.9025 116.1482 15.27605933 35970
STARLINK-36063          
1 66606U 25270U   26188.12258705 -.00018389  00000+0 -66026-3 0  9998
2 66606  42.9997 101.5061 0001341  15.9753 344.1141 15.27585435 35976
STARLINK-35993          
1 66607U 25270V   26188.14442955  .00024685  00000+0  90300-3 0  9999
2 66607  43.0026 101.6728 0002343 249.5360 110.5240 15.27598659 35871
STARLINK-36036          
1 66608U 25270W   26188.11872657  .00027663  00000+0  10100-2 0  9991
2 66608  42.9986 101.4734 0001230 274.4106  85.6605 15.27611742 35819
STARLINK-36034          
1 66609U 25270X   26187.96880304  .00022429  00000+0  82131-3 0  9991
2 66609  42.9969 102.9277 0003630 176.4223 183.6655 15.27608294 35784
STARLINK-35680          
1 66610U 25270Y   26188.13671551  .00022570  00000+0  82679-3 0  9999
2 66610  43.0027 101.6167 0001996 260.3910  99.6716 15.27594960 36088
STARLINK-35583          
1 66611U 25270Z   26188.12899720  .00033806  00000+0  12308-2 0  9994
2 66611  43.0020 101.5571 0002718 266.1440  93.9101 15.27619783 36081
