OBJECT_NAME,OBJECT_ID,EPOCH,MEAN_MOTION,ECCENTRICITY,INCLINATION,RA_OF_ASC_NODE,ARG_OF_PERICENTER,MEAN_ANOMALY,EPHEMERIS_TYPE,CLASSIFICATION_TYPE,NORAD_CAT_ID,ELEMENT_SET_NO,REV_AT_EPOCH,BSTAR,MEAN_MOTION_DOT,MEAN_MOTION_DDOT
STARLINK-35872,2025-268Z,2026-07-06T23:16:17.123232,15.27584723,.0000332,43.0021,33.2935,301.3400,58.7419,0,U,66580,999,3620,.82109E-3,.22404E-3,0
STARLINK-35744,2025-268AA,2026-07-06T23:10:44.395104,15.27618071,.0002063,43.0027,33.2660,250.6482,109.4147,0,U,66581,999,3620,.87169E-3,.23831E-3,0
STARLINK-35746,2025-268AB,2026-07-06T23:01:29.287200,15.27625867,.0002969,43.0061,33.2186,285.9502,74.1023,0,U,66582,999,3620,.13605E-2,.3742E-3,0
STARLINK-35941,2025-268AC,2026-07-06T22:55:56.825184,15.27589034,.0001677,43.0043,33.1855,254.7363,105.3303,0,U,66583,999,3620,.69531E-3,.18926E-3,0
STARLINK-35939,2025-268AD,2026-07-06T22:50:22.695648,15.27615667,.0004126,43.0046,33.1559,264.5992,95.4389,0,U,66584,999,3620,.11105E-2,.30462E-3,0
STARLINK-35963,2025-268AE,2026-07-05T23:03:27.866016,15.27532311,.0001957,43.0012,39.4890,267.7233,92.3394,0,U,66585,999,3604,.10469E-2,.28616E-3,0
STARLINK-36076,2025-270A,2026-07-07T02:45:24.575328,15.27630449,.000126,42.9998,101.4580,310.9719,49.1024,0,U,66588,999,3597,.13502E-2,.37138E-3,0
STARLINK-35447,2025-270B,2026-07-07T03:15:01.135584,15.27607520,.0001242,43.0013,101.6118,248.5798,111.4921,0,U,66589,999,3608,.80567E-3,.21993E-3,0
STARLINK-35429,2025-270C,2026-07-07T00:51:05.967072,15.27579777,.0002092,43.0015,102.5798,248.7322,111.3307,0,U,66590,999,3606,.82702E-3,.22566E-3,0
STARLINK-36058,2025-270D,2026-07-07T03:22:24.796992,15.27620897,.0001996,43.0005,101.6508,261.5562,98.5063,0,U,66591,999,3597,.11268E-2,.30914E-3,0
STARLINK-36066,2025-270E,2026-07-07T02:06:46.383840,15.27609224,.0001608,43.0042,102.1157,250.8365,109.2313,0,U,66592,999,3586,.10432E-2,.28582E-3,0
STARLINK-36031,2025-270F,2026-07-07T02:54:40.606848,15.27583384,.0001098,42.9985,101.5048,359.4939,0.5911,0,U,66593,999,3597,-.49687E-3,-.1391E-3,0
STARLINK-36032,2025-270G,2026-07-07T03:37:13.337184,15.27614192,.0001569,43.0028,101.7228,266.8669,93.2003,0,U,66594,999,3578,.10109E-2,.27688E-3,0
STARLINK-35711,2025-270H,2026-07-07T03:00:13.339296,15.27584222,.000094,43.0000,101.5278,293.7715,66.3038,0,U,66595,999,3608,.56668E-3,.15366E-3,0
STARLINK-35811,2025-270J,2026-07-07T03:52:02.210016,15.27592598,.000131,43.0017,101.8051,259.7336,100.3368,0,U,66596,999,3608,.73788E-3,.20106E-3,0
STARLINK-35820,2025-270K,2026-07-07T03:26:07.128384,15.27614102,.0002355,43.0063,101.6680,260.3349,99.7237,0,U,66597,999,3608,.10176E-2,.27875E-3,0
STARLINK-35981,2025-270L,2026-07-07T02:38:01.330368,15.27596207,.0000806,42.9978,101.4112,270.6977,89.3782,0,U,66598,999,3582,.86032E-3,.23499E-3,0
STARLINK-35930,2025-270M,2026-07-07T03:11:19.015008,15.27604175,.0001441,43.0004,101.5867,265.3025,94.7662,0,U,66599,999,3597,.73367E-3,.19997E-3,0
STARLINK-35980,2025-270N,2026-07-07T03:48:19.838016,15.27624713,.0001227,43.0026,101.7812,258.7304,101.3410,0,U,66600,999,3587,.15414E-2,.42456E-3,0
STARLINK-35978,2025-270P,2026-07-07T03:09:26.756352,15.27590584,.0001358,42.9993,101.5803,256.6234,103.4466,0,U,66601,999,3581,.69012E-3,.18783E-3,0
STARLINK-36050,2025-270Q,2026-07-07T03:46:28.547040,15.27619051,.0001232,43.0022,101.7760,292.6084,67.4637,0,U,66602,999,3587,.12108E-2,.33246E-3,0
STARLINK-36048,2025-270R,2026-07-07T02:49:07.113216,15.27608248,.0001463,42.9987,101.4686,289.8658,70.2036,0,U,66603,999,3587,.10648E-2,.2918E-3,0
STARLINK-35977,2025-270S,2026-07-07T04:06:36.800928,15.27643766,.0000867,42.9998,101.0114,344.2344,15.8481,0,U,66604,999,3598,.13332E-2,.36678E-3,0
STARLINK-36052,2025-270T,2026-07-07T03:31:39.722592,15.27605933,.0003343,43.0061,101.6836,243.9025,116.1482,0,U,66605,999,3597,.99678E-3,.27293E-3,0
STARLINK-36063,2025-270U,2026-07-07T02:56:31.521120,15.27585435,.0001341,42.9997,101.5061,15.9753,344.1141,0,U,66606,999,3597,-.66026E-3,-.18389E-3,0
STARLINK-35993,2025-270V,2026-07-07T03:27:58.713120,15.27598659,.0002343,43.0026,101.6728,249.5360,110.5240,0,U,66607,999,3587,.903E-3,.24685E-3,0
STARLINK-36036,2025-270W,2026-07-07T02:50:57.975648,15.27611742,.000123,42.9986,101.4734,274.4106,85.6605,0,U,66608,999,3581,.101E-2,.27663E-3,0
STARLINK-36034,2025-270X,2026-07-06T23:15:04.582656,15.27608294,.000363,42.9969,102.9277,176.4223,183.6655,0,U,66609,999,3578,.82131E-3,.22429E-3,0
STARLINK-35680,2025-270Y,2026-07-07T03:16:52.220064,15.27594960,.0001996,43.0027,101.6167,260.3910,99.6716,0,U,66610,999,3608,.82679E-3,.2257E-3,0
STARLINK-35583,2025-270Z,2026-07-07T03:05:45.358080,15.27619783,.0002718,43.0020,101.5571,266.1440,93.9101,0,U,66611,999,3608,.12308E-2,.33806E-3,0
